{"type": "FeatureCollection", "features": [ {"type": "Feature", "properties": {"norad_id": 41175, "name": "GSAT0208 (GALILEO 11)", "group": "galileo", "lat": 54.21210741529811, "lon": 177.06689828086093, "alt_km": 23215.11877346284, "timestamp": "2025-12-20T11:30:28.640115+00:00", "meta": {"OBJECT_NAME": "GSAT0208 (GALILEO 11)", "OBJECT_ID": "2015-079B", "EPOCH": "2025-12-18T00:06:32.261184", "MEAN_MOTION": 1.70474394, "ECCENTRICITY": 0.00019057, "INCLINATION": 55.7144, "RA_OF_ASC_NODE": 106.2337, "ARG_OF_PERICENTER": 356.5595, "MEAN_ANOMALY": 3.3982, "EPHEMERIS_TYPE": 0, "CLASSIFICATION_TYPE": "U", "NORAD_CAT_ID": 41175, "ELEMENT_SET_NO": 999, "REV_AT_EPOCH": 6210, "BSTAR": 0, "MEAN_MOTION_DOT": -8e-08, "MEAN_MOTION_DDOT": 0}, "tle": {"line1": "1 41175U 15079B   25352.00454006 -.00000008  00000+0  00000+0 0  9993", "line2": "2 41175  55.7144 106.2337 0001905 356.5595   3.3982  1.70474394 62104"}}, "geometry": {"type": "Point", "coordinates": [177.06689828086093, 54.21210741529811]}}, {"type": "Feature", "properties": {"norad_id": 41549, "name": "GSAT0211 (GALILEO 14)", "group": "galileo", "lat": 2.2457980665452073, "lon": -131.80987133417653, "alt_km": 23210.525898662956, "timestamp": "2025-12-20T11:30:28.640137+00:00", "meta": {"OBJECT_NAME": "GSAT0211 (GALILEO 14)", "OBJECT_ID": "2016-030A", "EPOCH": "2025-12-14T00:32:28.498848", "MEAN_MOTION": 1.70473201, "ECCENTRICITY": 0.000407, "INCLINATION": 55.1518, "RA_OF_ASC_NODE": 226.7881, "ARG_OF_PERICENTER": 16.5595, "MEAN_ANOMALY": 343.5367, "EPHEMERIS_TYPE": 0, "CLASSIFICATION_TYPE": "U", "NORAD_CAT_ID": 41549, "ELEMENT_SET_NO": 999, "REV_AT_EPOCH": 5951, "BSTAR": 0, "MEAN_MOTION_DOT": 2.8e-07, "MEAN_MOTION_DDOT": 0}, "tle": {"line1": "1 41549U 16030A   25348.02255207  .00000028  00000+0  00000+0 0  9996", "line2": "2 41549  55.1518 226.7881 0004070  16.5595 343.5367  1.70473201 59512"}}, "geometry": {"type": "Point", "coordinates": [-131.80987133417653, 2.2457980665452073]}}, {"type": "Feature", "properties": {"norad_id": 41550, "name": "GSAT0210 (GALILEO 13)", "group": "galileo", "lat": -20.13945566240916, "lon": 61.42005432623456, "alt_km": 23222.812161407877, "timestamp": "2025-12-20T11:30:28.640164+00:00", "meta": {"OBJECT_NAME": "GSAT0210 (GALILEO 13)", "OBJECT_ID": "2016-030B", "EPOCH": "2025-12-18T23:20:38.714784", "MEAN_MOTION": 1.70473668, "ECCENTRICITY": 7.917e-05, "INCLINATION": 55.1496, "RA_OF_ASC_NODE": 226.6499, "ARG_OF_PERICENTER": 227.6007, "MEAN_ANOMALY": 132.5002, "EPHEMERIS_TYPE": 0, "CLASSIFICATION_TYPE": "U", "NORAD_CAT_ID": 41550, "ELEMENT_SET_NO": 999, "REV_AT_EPOCH": 5959, "BSTAR": 0, "MEAN_MOTION_DOT": 6.5e-07, "MEAN_MOTION_DDOT": 0}, "tle": {"line1": "1 41550U 16030B   25352.97267031  .00000065  00000+0  00000+0 0  9996", "line2": "2 41550  55.1496 226.6499 0000791 227.6007 132.5002  1.70473668 59599"}}, "geometry": {"type": "Point", "coordinates": [61.42005432623456, -20.13945566240916]}}, {"type": "Feature", "properties": {"norad_id": 41859, "name": "GSAT0207 (GALILEO 15)", "group": "galileo", "lat": 27.451797953617557, "lon": 127.02513702542217, "alt_km": 23216.998433491695, "timestamp": "2025-12-20T11:30:28.640181+00:00", "meta": {"OBJECT_NAME": "GSAT0207 (GALILEO 15)", "OBJECT_ID": "2016-069A", "EPOCH": "2025-12-19T06:01:13.799424", "MEAN_MOTION": 1.70474539, "ECCENTRICITY": 0.0002355, "INCLINATION": 55.3858, "RA_OF_ASC_NODE": 106.07, "ARG_OF_PERICENTER": 318.8542, "MEAN_ANOMALY": 41.0896, "EPHEMERIS_TYPE": 0, "CLASSIFICATION_TYPE": "U", "NORAD_CAT_ID": 41859, "ELEMENT_SET_NO": 999, "REV_AT_EPOCH": 5633, "BSTAR": 0, "MEAN_MOTION_DOT": -6e-08, "MEAN_MOTION_DDOT": 0}, "tle": {"line1": "1 41859U 16069A   25353.25085416 -.00000006  00000+0  00000+0 0  9993", "line2": "2 41859  55.3858 106.0700 0002355 318.8542  41.0896  1.70474539 56338"}}, "geometry": {"type": "Point", "coordinates": [127.02513702542217, 27.451797953617557]}}, {"type": "Feature", "properties": {"norad_id": 41860, "name": "GSAT0212 (GALILEO 16)", "group": "galileo", "lat": 43.07949648080046, "lon": -114.14039692876997, "alt_km": 23218.21691072538, "timestamp": "2025-12-20T11:30:28.640193+00:00", "meta": {"OBJECT_NAME": "GSAT0212 (GALILEO 16)", "OBJECT_ID": "2016-069B", "EPOCH": "2025-12-18T12:25:48.697536", "MEAN_MOTION": 1.70474692, "ECCENTRICITY": 0.00020646, "INCLINATION": 55.3831, "RA_OF_ASC_NODE": 106.0857, "ARG_OF_PERICENTER": 21.766, "MEAN_ANOMALY": 338.2025, "EPHEMERIS_TYPE": 0, "CLASSIFICATION_TYPE": "U", "NORAD_CAT_ID": 41860, "ELEMENT_SET_NO": 999, "REV_AT_EPOCH": 5657, "BSTAR": 0, "MEAN_MOTION_DOT": -8e-08, "MEAN_MOTION_DDOT": 0}, "tle": {"line1": "1 41860U 16069B   25352.51792474 -.00000008  00000+0  00000+0 0  9994", "line2": "2 41860  55.3831 106.0857 0002064  21.7660 338.2025  1.70474692 56573"}}, "geometry": {"type": "Point", "coordinates": [-114.14039692876997, 43.07949648080046]}}, {"type": "Feature", "properties": {"norad_id": 41861, "name": "GSAT0213 (GALILEO 17)", "group": "galileo", "lat": -53.70925761904987, "lon": -4.0466005444462105, "alt_km": 23220.89046644696, "timestamp": "2025-12-20T11:30:28.640204+00:00", "meta": {"OBJECT_NAME": "GSAT0213 (GALILEO 17)", "OBJECT_ID": "2016-069C", "EPOCH": "2025-12-17T17:05:43.699776", "MEAN_MOTION": 1.70474994, "ECCENTRICITY": 0.000259, "INCLINATION": 55.385, "RA_OF_ASC_NODE": 106.1156, "ARG_OF_PERICENTER": 282.1972, "MEAN_ANOMALY": 77.7328, "EPHEMERIS_TYPE": 0, "CLASSIFICATION_TYPE": "U", "NORAD_CAT_ID": 41861, "ELEMENT_SET_NO": 999, "REV_AT_EPOCH": 5642, "BSTAR": 0, "MEAN_MOTION_DOT": -9e-08, "MEAN_MOTION_DDOT": 0}, "tle": {"line1": "1 41861U 16069C   25351.71231134 -.00000009  00000+0  00000+0 0  9998", "line2": "2 41861  55.3850 106.1156 0002590 282.1972  77.7328  1.70474994 56421"}}, "geometry": {"type": "Point", "coordinates": [-4.0466005444462105, -53.70925761904987]}}, {"type": "Feature", "properties": {"norad_id": 41862, "name": "GSAT0214 (GALILEO 18)", "group": "galileo", "lat": 9.287244362327078, "lon": -80.45093195627393, "alt_km": 23223.450040342963, "timestamp": "2025-12-20T11:30:28.640216+00:00", "meta": {"OBJECT_NAME": "GSAT0214 (GALILEO 18)", "OBJECT_ID": "2016-069D", "EPOCH": "2025-12-17T20:35:58.649280", "MEAN_MOTION": 1.70474854, "ECCENTRICITY": 0.00015422, "INCLINATION": 55.383, "RA_OF_ASC_NODE": 106.1044, "ARG_OF_PERICENTER": 289.1766, "MEAN_ANOMALY": 70.7658, "EPHEMERIS_TYPE": 0, "CLASSIFICATION_TYPE": "U", "NORAD_CAT_ID": 41862, "ELEMENT_SET_NO": 999, "REV_AT_EPOCH": 5655, "BSTAR": 0, "MEAN_MOTION_DOT": -9e-08, "MEAN_MOTION_DDOT": 0}, "tle": {"line1": "1 41862U 16069D   25351.85831770 -.00000009  00000+0  00000+0 0  9996", "line2": "2 41862  55.3830 106.1044 0001542 289.1766  70.7658  1.70474854 56558"}}, "geometry": {"type": "Point", "coordinates": [-80.45093195627393, 9.287244362327078]}}, {"type": "Feature", "properties": {"norad_id": 43055, "name": "GSAT0215 (GALILEO 19)", "group": "galileo", "lat": -37.443700036576104, "lon": 78.69615463687153, "alt_km": 23228.440579202652, "timestamp": "2025-12-20T11:30:28.640247+00:00", "meta": {"OBJECT_NAME": "GSAT0215 (GALILEO 19)", "OBJECT_ID": "2017-079A", "EPOCH": "2025-12-18T08:21:56.206080", "MEAN_MOTION": 1.70474068, "ECCENTRICITY": 0.00012335, "INCLINATION": 55.1282, "RA_OF_ASC_NODE": 226.4832, "ARG_OF_PERICENTER": 345.8587, "MEAN_ANOMALY": 14.2435, "EPHEMERIS_TYPE": 0, "CLASSIFICATION_TYPE": "U", "NORAD_CAT_ID": 43055, "ELEMENT_SET_NO": 999, "REV_AT_EPOCH": 4990, "BSTAR": 0, "MEAN_MOTION_DOT": 6.2e-07, "MEAN_MOTION_DDOT": 0}, "tle": {"line1": "1 43055U 17079A   25352.34856720  .00000062  00000+0  00000+0 0  9999", "line2": "2 43055  55.1282 226.4832 0001233 345.8587  14.2435  1.70474068 49906"}}, "geometry": {"type": "Point", "coordinates": [78.69615463687153, -37.443700036576104]}}, {"type": "Feature", "properties": {"norad_id": 43056, "name": "GSAT0216 (GALILEO 20)", "group": "galileo", "lat": 38.29155470976296, "lon": -100.1759298610085, "alt_km": 23216.92308575063, "timestamp": "2025-12-20T11:30:28.640260+00:00", "meta": {"OBJECT_NAME": "GSAT0216 (GALILEO 20)", "OBJECT_ID": "2017-079B", "EPOCH": "2025-12-19T19:30:44.926272", "MEAN_MOTION": 1.70474153, "ECCENTRICITY": 0.0002369, "INCLINATION": 55.1281, "RA_OF_ASC_NODE": 226.4428, "ARG_OF_PERICENTER": 323.7267, "MEAN_ANOMALY": 36.3665, "EPHEMERIS_TYPE": 0, "CLASSIFICATION_TYPE": "U", "NORAD_CAT_ID": 43056, "ELEMENT_SET_NO": 999, "REV_AT_EPOCH": 4994, "BSTAR": 0, "MEAN_MOTION_DOT": 6.9e-07, "MEAN_MOTION_DDOT": 0}, "tle": {"line1": "1 43056U 17079B   25353.81301998  .00000069  00000+0  00000+0 0  9992", "line2": "2 43056  55.1281 226.4428 0002369 323.7267  36.3665  1.70474153 49947"}}, "geometry": {"type": "Point", "coordinates": [-100.1759298610085, 38.29155470976296]}}, {"type": "Feature", "properties": {"norad_id": 43057, "name": "GSAT0217 (GALILEO 21)", "group": "galileo", "lat": -54.96491415886064, "lon": 142.64673383462167, "alt_km": 23225.8811510612, "timestamp": "2025-12-20T11:30:28.640271+00:00", "meta": {"OBJECT_NAME": "GSAT0217 (GALILEO 21)", "OBJECT_ID": "2017-079C", "EPOCH": "2025-12-18T06:34:31.891008", "MEAN_MOTION": 1.70474093, "ECCENTRICITY": 0.0002798, "INCLINATION": 55.1266, "RA_OF_ASC_NODE": 226.4833, "ARG_OF_PERICENTER": 348.1017, "MEAN_ANOMALY": 11.9971, "EPHEMERIS_TYPE": 0, "CLASSIFICATION_TYPE": "U", "NORAD_CAT_ID": 43057, "ELEMENT_SET_NO": 999, "REV_AT_EPOCH": 4990, "BSTAR": 0, "MEAN_MOTION_DOT": 6.1e-07, "MEAN_MOTION_DDOT": 0}, "tle": {"line1": "1 43057U 17079C   25352.27398022  .00000061  00000+0  00000+0 0  9998", "line2": "2 43057  55.1266 226.4833 0002798 348.1017  11.9971  1.70474093 49909"}}, "geometry": {"type": "Point", "coordinates": [142.64673383462167, -54.96491415886064]}}]}